{"type": "FeatureCollection", "features": [ {"type": "Feature", "properties": {"norad_id": 31736, "name": "FENGYUN 1C DEB", "group": "fengyun-1c-debris", "lat": 4.939393758928119, "lon": 166.1720333532567, "alt_km": 845.5183285155572, "timestamp": "2025-12-09T09:46:47.930026+00:00", "meta": {"OBJECT_NAME": "FENGYUN 1C DEB", "OBJECT_ID": "1999-025CEK", "EPOCH": "2025-12-07T06:00:46.728576", "MEAN_MOTION": 14.14178475, "ECCENTRICITY": 0.00109922, "INCLINATION": 98.6782, "RA_OF_ASC_NODE": 343.321, "ARG_OF_PERICENTER": 257.8319, "MEAN_ANOMALY": 102.1623, "EPHEMERIS_TYPE": 0, "CLASSIFICATION_TYPE": "U", "NORAD_CAT_ID": 31736, "ELEMENT_SET_NO": 999, "REV_AT_EPOCH": 63987, "BSTAR": 0.00026653832, "MEAN_MOTION_DOT": 4.65e-06, "MEAN_MOTION_DDOT": 0}, "tle": {"line1": "1 31736U 99025CEK 25341.25054084  .00000465  00000+0  26654-3 0  9998", "line2": "2 31736  98.6782 343.3210 0010992 257.8319 102.1623 14.14178475639874"}}, "geometry": {"type": "Point", "coordinates": [166.1720333532567, 4.939393758928119]}}, {"type": "Feature", "properties": {"norad_id": 31737, "name": "FENGYUN 1C DEB", "group": "fengyun-1c-debris", "lat": 16.225281938126933, "lon": -160.6528536887632, "alt_km": 742.2476089149486, "timestamp": "2025-12-09T09:46:47.930038+00:00", "meta": {"OBJECT_NAME": "FENGYUN 1C DEB", "OBJECT_ID": "1999-025CEL", "EPOCH": "2025-12-08T20:45:58.878720", "MEAN_MOTION": 14.68697367, "ECCENTRICITY": 0.014918, "INCLINATION": 97.9174, "RA_OF_ASC_NODE": 16.5009, "ARG_OF_PERICENTER": 28.0348, "MEAN_ANOMALY": 149.0562, "EPHEMERIS_TYPE": 0, "CLASSIFICATION_TYPE": "U", "NORAD_CAT_ID": 31737, "ELEMENT_SET_NO": 999, "REV_AT_EPOCH": 98142, "BSTAR": 0.00093814998, "MEAN_MOTION_DOT": 6.422e-05, "MEAN_MOTION_DDOT": 0}, "tle": {"line1": "1 31737U 99025CEL 25342.86526480  .00006422  00000+0  93815-3 0  9993", "line2": "2 31737  97.9174  16.5009 0149180  28.0348 149.0562 14.68697367981427"}}, "geometry": {"type": "Point", "coordinates": [-160.6528536887632, 16.225281938126933]}}, {"type": "Feature", "properties": {"norad_id": 31738, "name": "FENGYUN 1C DEB", "group": "fengyun-1c-debris", "lat": 59.76472344549417, "lon": -112.90378291374633, "alt_km": 717.7344944395481, "timestamp": "2025-12-09T09:46:47.930049+00:00", "meta": {"OBJECT_NAME": "FENGYUN 1C DEB", "OBJECT_ID": "1999-025CEM", "EPOCH": "2025-11-17T10:08:15.850752", "MEAN_MOTION": 13.84884182, "ECCENTRICITY": 0.03082109, "INCLINATION": 99.3633, "RA_OF_ASC_NODE": 28.6808, "ARG_OF_PERICENTER": 167.6176, "MEAN_ANOMALY": 193.2777, "EPHEMERIS_TYPE": 0, "CLASSIFICATION_TYPE": "U", "NORAD_CAT_ID": 31738, "ELEMENT_SET_NO": 999, "REV_AT_EPOCH": 61907, "BSTAR": 0.0026324864, "MEAN_MOTION_DOT": 4.259e-05, "MEAN_MOTION_DDOT": 0}, "tle": {"line1": "1 31738U 99025CEM 25321.42240568  .00004259  00000+0  26325-2 0  9990", "line2": "2 31738  99.3633  28.6808 0308210 167.6176 193.2777 13.84884182619073"}}, "geometry": {"type": "Point", "coordinates": [-112.90378291374633, 59.76472344549417]}}, {"type": "Feature", "properties": {"norad_id": 31739, "name": "FENGYUN 1C DEB", "group": "fengyun-1c-debris", "lat": -15.83254133304943, "lon": 41.28384144120461, "alt_km": 853.4155428813356, "timestamp": "2025-12-09T09:46:47.930059+00:00", "meta": {"OBJECT_NAME": "FENGYUN 1C DEB", "OBJECT_ID": "1999-025CEN", "EPOCH": "2025-12-08T10:10:01.565472", "MEAN_MOTION": 14.19214964, "ECCENTRICITY": 0.01284885, "INCLINATION": 98.7481, "RA_OF_ASC_NODE": 37.8097, "ARG_OF_PERICENTER": 90.5395, "MEAN_ANOMALY": 271.0505, "EPHEMERIS_TYPE": 0, "CLASSIFICATION_TYPE": "U", "NORAD_CAT_ID": 31739, "ELEMENT_SET_NO": 999, "REV_AT_EPOCH": 95425, "BSTAR": 0.00018535067, "MEAN_MOTION_DOT": 3.79e-06, "MEAN_MOTION_DDOT": 0}, "tle": {"line1": "1 31739U 99025CEN 25342.42362923  .00000379  00000+0  18535-3 0  9998", "line2": "2 31739  98.7481  37.8097 0128488  90.5395 271.0505 14.19214964954254"}}, "geometry": {"type": "Point", "coordinates": [41.28384144120461, -15.83254133304943]}}, {"type": "Feature", "properties": {"norad_id": 31740, "name": "FENGYUN 1C DEB", "group": "fengyun-1c-debris", "lat": 24.582920074965205, "lon": 149.70156824449367, "alt_km": 740.3584392414641, "timestamp": "2025-12-09T09:46:47.930070+00:00", "meta": {"OBJECT_NAME": "FENGYUN 1C DEB", "OBJECT_ID": "1999-025CEP", "EPOCH": "2025-12-07T23:23:54.081600", "MEAN_MOTION": 14.42100668, "ECCENTRICITY": 0.00243063, "INCLINATION": 99.8211, "RA_OF_ASC_NODE": 152.6005, "ARG_OF_PERICENTER": 82.3936, "MEAN_ANOMALY": 69.7261, "EPHEMERIS_TYPE": 0, "CLASSIFICATION_TYPE": "U", "NORAD_CAT_ID": 31740, "ELEMENT_SET_NO": 999, "REV_AT_EPOCH": 65006, "BSTAR": 0.0018306589, "MEAN_MOTION_DOT": 5.989e-05, "MEAN_MOTION_DDOT": 0}, "tle": {"line1": "1 31740U 99025CEP 25341.97493150  .00005989  00000+0  18307-2 0  9994", "line2": "2 31740  99.8211 152.6005 0024306  82.3936  69.7261 14.42100668650062"}}, "geometry": {"type": "Point", "coordinates": [149.70156824449367, 24.582920074965205]}}, {"type": "Feature", "properties": {"norad_id": 31742, "name": "FENGYUN 1C DEB", "group": "fengyun-1c-debris", "lat": 23.24647875114741, "lon": 26.946059428866995, "alt_km": 813.4801462946116, "timestamp": "2025-12-09T09:46:47.930083+00:00", "meta": {"OBJECT_NAME": "FENGYUN 1C DEB", "OBJECT_ID": "1999-025CER", "EPOCH": "2025-12-08T21:22:47.349984", "MEAN_MOTION": 14.39767074, "ECCENTRICITY": 0.00767458, "INCLINATION": 98.9195, "RA_OF_ASC_NODE": 202.5402, "ARG_OF_PERICENTER": 340.6654, "MEAN_ANOMALY": 19.1625, "EPHEMERIS_TYPE": 0, "CLASSIFICATION_TYPE": "U", "NORAD_CAT_ID": 31742, "ELEMENT_SET_NO": 999, "REV_AT_EPOCH": 96594, "BSTAR": 0.00089178657, "MEAN_MOTION_DOT": 2.845e-05, "MEAN_MOTION_DDOT": 0}, "tle": {"line1": "1 31742U 99025CER 25342.89082581  .00002845  00000+0  89179-3 0  9994", "line2": "2 31742  98.9195 202.5402 0076745 340.6654  19.1625 14.39767074965947"}}, "geometry": {"type": "Point", "coordinates": [26.946059428866995, 23.24647875114741]}}, {"type": "Feature", "properties": {"norad_id": 31743, "name": "FENGYUN 1C DEB", "group": "fengyun-1c-debris", "lat": -18.557229421386523, "lon": -85.74939117632293, "alt_km": 802.5232147456036, "timestamp": "2025-12-09T09:46:47.930094+00:00", "meta": {"OBJECT_NAME": "FENGYUN 1C DEB", "OBJECT_ID": "1999-025CES", "EPOCH": "2025-12-07T14:49:21.254304", "MEAN_MOTION": 14.31229698, "ECCENTRICITY": 0.00374652, "INCLINATION": 99.1418, "RA_OF_ASC_NODE": 269.2695, "ARG_OF_PERICENTER": 234.4051, "MEAN_ANOMALY": 249.3126, "EPHEMERIS_TYPE": 0, "CLASSIFICATION_TYPE": "U", "NORAD_CAT_ID": 31743, "ELEMENT_SET_NO": 999, "REV_AT_EPOCH": 95567, "BSTAR": 0.0029097178, "MEAN_MOTION_DOT": 7.709e-05, "MEAN_MOTION_DDOT": 0}, "tle": {"line1": "1 31743U 99025CES 25341.61760711  .00007709  00000+0  29097-2 0  9998", "line2": "2 31743  99.1418 269.2695 0037465 234.4051 249.3126 14.31229698955679"}}, "geometry": {"type": "Point", "coordinates": [-85.74939117632293, -18.557229421386523]}}, {"type": "Feature", "properties": {"norad_id": 31744, "name": "FENGYUN 1C DEB", "group": "fengyun-1c-debris", "lat": 63.62904729470357, "lon": -66.46262007412034, "alt_km": 714.2914577955034, "timestamp": "2025-12-09T09:46:47.930106+00:00", "meta": {"OBJECT_NAME": "FENGYUN 1C DEB", "OBJECT_ID": "1999-025CET", "EPOCH": "2025-12-04T13:59:28.410144", "MEAN_MOTION": 14.16423838, "ECCENTRICITY": 0.0316256, "INCLINATION": 99.3063, "RA_OF_ASC_NODE": 89.1727, "ARG_OF_PERICENTER": 67.4972, "MEAN_ANOMALY": 295.9356, "EPHEMERIS_TYPE": 0, "CLASSIFICATION_TYPE": "U", "NORAD_CAT_ID": 31744, "ELEMENT_SET_NO": 999, "REV_AT_EPOCH": 94499, "BSTAR": 0.0032306, "MEAN_MOTION_DOT": 0.00010446, "MEAN_MOTION_DDOT": 0}, "tle": {"line1": "1 31744U 99025CET 25338.58296771  .00010446  00000+0  32306-2 0  9990", "line2": "2 31744  99.3063  89.1727 0316256  67.4972 295.9356 14.16423838944997"}}, "geometry": {"type": "Point", "coordinates": [-66.46262007412034, 63.62904729470357]}}, {"type": "Feature", "properties": {"norad_id": 31746, "name": "FENGYUN 1C DEB", "group": "fengyun-1c-debris", "lat": -3.995427974326169, "lon": -74.83157276624839, "alt_km": 629.8253089216814, "timestamp": "2025-12-09T09:46:47.930117+00:00", "meta": {"OBJECT_NAME": "FENGYUN 1C DEB", "OBJECT_ID": "1999-025CEV", "EPOCH": "2025-12-08T13:25:49.648224", "MEAN_MOTION": 14.76434428, "ECCENTRICITY": 0.0023745, "INCLINATION": 98.5888, "RA_OF_ASC_NODE": 104.8721, "ARG_OF_PERICENTER": 218.9091, "MEAN_ANOMALY": 141.0408, "EPHEMERIS_TYPE": 0, "CLASSIFICATION_TYPE": "U", "NORAD_CAT_ID": 31746, "ELEMENT_SET_NO": 999, "REV_AT_EPOCH": 96966, "BSTAR": 0.0049017, "MEAN_MOTION_DOT": 0.00034355, "MEAN_MOTION_DDOT": 0}, "tle": {"line1": "1 31746U 99025CEV 25342.55960241  .00034355  00000+0  49017-2 0  9996", "line2": "2 31746  98.5888 104.8721 0023745 218.9091 141.0408 14.76434428969660"}}, "geometry": {"type": "Point", "coordinates": [-74.83157276624839, -3.995427974326169]}}, {"type": "Feature", "properties": {"norad_id": 31752, "name": "FENGYUN 1C DEB", "group": "fengyun-1c-debris", "lat": 10.686318204615175, "lon": 54.57050614486618, "alt_km": 687.6352264564921, "timestamp": "2025-12-09T09:46:47.930127+00:00", "meta": {"OBJECT_NAME": "FENGYUN 1C DEB", "OBJECT_ID": "1999-025CFB", "EPOCH": "2025-11-28T11:42:46.096128", "MEAN_MOTION": 13.92945252, "ECCENTRICITY": 0.0356614, "INCLINATION": 98.9794, "RA_OF_ASC_NODE": 45.6633, "ARG_OF_PERICENTER": 12.9266, "MEAN_ANOMALY": 348.0748, "EPHEMERIS_TYPE": 0, "CLASSIFICATION_TYPE": "U", "NORAD_CAT_ID": 31752, "ELEMENT_SET_NO": 999, "REV_AT_EPOCH": 93392, "BSTAR": 0.0012622162, "MEAN_MOTION_DOT": 2.723e-05, "MEAN_MOTION_DDOT": 0}, "tle": {"line1": "1 31752U 99025CFB 25332.48803352  .00002723  00000+0  12622-2 0  9999", "line2": "2 31752  98.9794  45.6633 0356614  12.9266 348.0748 13.92945252933926"}}, "geometry": {"type": "Point", "coordinates": [54.57050614486618, 10.686318204615175]}}]}